{
"type": "FeatureCollection",
"name": "Obliq_Footprints",
"crs": { "type": "name", "properties": { "name": "urn:ogc:def:crs:OGC:1.3:CRS84" } },
"features": [
{ "type": "Feature", "properties": { "MAP_NAME": "FootPrints.txt", "NAME": "328.jpg", "EO_paramet": "1601927.165997603\t5458601.541683115\t588.2027000000002\t-12.61581        \t38.2796          \t109.864054", "PERIMETER": "2.587 km", "ENCLOSED_A": "0.3676 sq km", "FRAME": "328.tif", "ALTITUDEm": 588.203, "PROJECT": "Tasman Oblique Test Site", "DATE_DMY": 140226, "YYMMDD": 260214, "CAMERA": "Sony A7R IV (60mp sensor)", "OFFSET_ANG": "40deg from vertical", "GSD_m_": "approx. 0.05m (5cm) in image centre", "LENS": "50mm Voigtlander APO Lanthar", "layer": "2026_ASL_Oblique_Sample_Footprints", "path": "C:/Users/JamesMckenzie.GEOSMART/OneDrive - Aerial Surveys/Documents/05 Client Progress Portal/Oblique_WebMap/Data/Shape Files/2026_ASL_Oblique_Sample_Footprints.shp" }, "geometry": { "type": "MultiPolygon", "coordinates": [ [ [ [ 173.021045455553747, -41.025565031479417 ], [ 173.011758022345646, -41.028804959918595 ], [ 173.009943893644675, -41.023843350806857 ], [ 173.020108456127844, -41.023003384817564 ], [ 173.021045455553747, -41.025565031479417 ] ] ] ] } },
{ "type": "Feature", "properties": { "MAP_NAME": "FootPrints.txt", "NAME": "329.jpg", "EO_paramet": "1601971.850040792\t5458445.671816504\t587.6933000000001\t-12.61581        \t38.2796          \t109.864054", "PERIMETER": "2.585 km", "ENCLOSED_A": "0.367 sq km", "FRAME": "329.tif", "ALTITUDEm": 587.693, "PROJECT": "Tasman Oblique Test Site", "DATE_DMY": 140226, "YYMMDD": 260214, "CAMERA": "Sony A7R IV (60mp sensor)", "OFFSET_ANG": "40deg from vertical", "GSD_m_": "approx. 0.05m (5cm) in image centre", "LENS": "50mm Voigtlander APO Lanthar", "layer": "2026_ASL_Oblique_Sample_Footprints", "path": "C:/Users/JamesMckenzie.GEOSMART/OneDrive - Aerial Surveys/Documents/05 Client Progress Portal/Oblique_WebMap/Data/Shape Files/2026_ASL_Oblique_Sample_Footprints.shp" }, "geometry": { "type": "MultiPolygon", "coordinates": [ [ [ [ 173.021579056040991, -41.026967504232175 ], [ 173.012299495676899, -41.030204669317577 ], [ 173.010486858924622, -41.025247366850287 ], [ 173.020642827502854, -41.024408081000608 ], [ 173.021579056040991, -41.026967504232175 ] ] ] ] } },
{ "type": "Feature", "properties": { "MAP_NAME": "FootPrints.txt", "NAME": "330.jpg", "EO_paramet": "1602011.071432579\t5458303.124338738\t589.3121000000001\t-12.61581        \t38.2796          \t109.864054", "PERIMETER": "2.592 km", "ENCLOSED_A": "0.369 sq km", "FRAME": "330.tif", "ALTITUDEm": 589.312, "PROJECT": "Tasman Oblique Test Site", "DATE_DMY": 140226, "YYMMDD": 260214, "CAMERA": "Sony A7R IV (60mp sensor)", "OFFSET_ANG": "40deg from vertical", "GSD_m_": "approx. 0.05m (5cm) in image centre", "LENS": "50mm Voigtlander APO Lanthar", "layer": "2026_ASL_Oblique_Sample_Footprints", "path": "C:/Users/JamesMckenzie.GEOSMART/OneDrive - Aerial Surveys/Documents/05 Client Progress Portal/Oblique_WebMap/Data/Shape Files/2026_ASL_Oblique_Sample_Footprints.shp" }, "geometry": { "type": "MultiPolygon", "coordinates": [ [ [ [ 173.022040864647948, -41.028256391019951 ], [ 173.012735583750469, -41.031502508412196 ], [ 173.010917885976625, -41.026531559031348 ], [ 173.021102021125984, -41.025689922192832 ], [ 173.022040864647948, -41.028256391019951 ] ] ] ] } },
{ "type": "Feature", "properties": { "MAP_NAME": "FootPrints.txt", "NAME": "331.jpg", "EO_paramet": "1602052.138054232\t5458150.918229739\t590.6514000000001\t-12.61581        \t38.2796          \t109.864054", "PERIMETER": "2.598 km", "ENCLOSED_A": "0.3707 sq km", "FRAME": "331.tif", "ALTITUDEm": 590.651, "PROJECT": "Tasman Oblique Test Site", "DATE_DMY": 140226, "YYMMDD": 260214, "CAMERA": "Sony A7R IV (60mp sensor)", "OFFSET_ANG": "40deg from vertical", "GSD_m_": "approx. 0.05m (5cm) in image centre", "LENS": "50mm Voigtlander APO Lanthar", "layer": "2026_ASL_Oblique_Sample_Footprints", "path": "C:/Users/JamesMckenzie.GEOSMART/OneDrive - Aerial Surveys/Documents/05 Client Progress Portal/Oblique_WebMap/Data/Shape Files/2026_ASL_Oblique_Sample_Footprints.shp" }, "geometry": { "type": "MultiPolygon", "coordinates": [ [ [ [ 173.022525563458998, -41.029631435675583 ], [ 173.013198963719077, -41.032884967967654 ], [ 173.011377062212404, -41.027902729853132 ], [ 173.021584547888381, -41.027059138733449 ], [ 173.022525563458998, -41.029631435675583 ] ] ] ] } },
{ "type": "Feature", "properties": { "MAP_NAME": "FootPrints.txt", "NAME": "332.jpg", "EO_paramet": "1602091.437965575\t5457999.933467946\t591.4775000000001\t-12.61581        \t38.2796          \t109.864054", "PERIMETER": "2.601 km", "ENCLOSED_A": "0.3717 sq km", "FRAME": "332.tif", "ALTITUDEm": 591.477, "PROJECT": "Tasman Oblique Test Site", "DATE_DMY": 140226, "YYMMDD": 260214, "CAMERA": "Sony A7R IV (60mp sensor)", "OFFSET_ANG": "40deg from vertical", "GSD_m_": "approx. 0.05m (5cm) in image centre", "LENS": "50mm Voigtlander APO Lanthar", "layer": "2026_ASL_Oblique_Sample_Footprints", "path": "C:/Users/JamesMckenzie.GEOSMART/OneDrive - Aerial Surveys/Documents/05 Client Progress Portal/Oblique_WebMap/Data/Shape Files/2026_ASL_Oblique_Sample_Footprints.shp" }, "geometry": { "type": "MultiPolygon", "coordinates": [ [ [ [ 173.022990900163478, -41.030993933056727 ], [ 173.013651085792304, -41.034252052264527 ], [ 173.011826564424638, -41.029262854195728 ], [ 173.022048530934796, -41.028418042858235 ], [ 173.022990900163478, -41.030993933056727 ] ] ] ] } },
{ "type": "Feature", "properties": { "MAP_NAME": "FootPrints.txt", "NAME": "333.jpg", "EO_paramet": "1602132.249965342\t5457850.946201137\t592.0943000000001\t-12.61581        \t38.2796          \t109.864054", "PERIMETER": "2.604 km", "ENCLOSED_A": "0.3725 sq km", "FRAME": "333.tif", "ALTITUDEm": 592.094, "PROJECT": "Tasman Oblique Test Site", "DATE_DMY": 140226, "YYMMDD": 260214, "CAMERA": "Sony A7R IV (60mp sensor)", "OFFSET_ANG": "40deg from vertical", "GSD_m_": "approx. 0.05m (5cm) in image centre", "LENS": "50mm Voigtlander APO Lanthar", "layer": "2026_ASL_Oblique_Sample_Footprints", "path": "C:/Users/JamesMckenzie.GEOSMART/OneDrive - Aerial Surveys/Documents/05 Client Progress Portal/Oblique_WebMap/Data/Shape Files/2026_ASL_Oblique_Sample_Footprints.shp" }, "geometry": { "type": "MultiPolygon", "coordinates": [ [ [ [ 173.023474905941612, -41.032337799869389 ], [ 173.014125185218177, -41.035599354808518 ], [ 173.012298688266895, -41.030604962614284 ], [ 173.022531515959628, -41.029759228063718 ], [ 173.023474905941612, -41.032337799869389 ] ] ] ] } },
{ "type": "Feature", "properties": { "MAP_NAME": "FootPrints.txt", "NAME": "334.jpg", "EO_paramet": "1602175.666688971\t5457703.623051129\t591.2016000000001\t-12.61581        \t38.2796          \t109.864054", "PERIMETER": "2.6 km", "ENCLOSED_A": "0.3714 sq km", "FRAME": "334.tif", "ALTITUDEm": 591.202, "PROJECT": "Tasman Oblique Test Site", "DATE_DMY": 140226, "YYMMDD": 260214, "CAMERA": "Sony A7R IV (60mp sensor)", "OFFSET_ANG": "40deg from vertical", "GSD_m_": "approx. 0.05m (5cm) in image centre", "LENS": "50mm Voigtlander APO Lanthar", "layer": "2026_ASL_Oblique_Sample_Footprints", "path": "C:/Users/JamesMckenzie.GEOSMART/OneDrive - Aerial Surveys/Documents/05 Client Progress Portal/Oblique_WebMap/Data/Shape Files/2026_ASL_Oblique_Sample_Footprints.shp" }, "geometry": { "type": "MultiPolygon", "coordinates": [ [ [ [ 173.023994731782068, -41.033662117018274 ], [ 173.014658946876381, -41.036918796468534 ], [ 173.012835126823774, -41.031931943944564 ], [ 173.023052724935837, -41.031087437785757 ], [ 173.023994731782068, -41.033662117018274 ] ] ] ] } },
{ "type": "Feature", "properties": { "MAP_NAME": "FootPrints.txt", "NAME": "335.jpg", "EO_paramet": "1602217.06417572 \t5457556.07819918 \t590.0395000000001\t-12.61581        \t38.2796          \t109.864054", "PERIMETER": "2.595 km", "ENCLOSED_A": "0.3699 sq km", "FRAME": "335.tif", "ALTITUDEm": 590.039, "PROJECT": "Tasman Oblique Test Site", "DATE_DMY": 140226, "YYMMDD": 260214, "CAMERA": "Sony A7R IV (60mp sensor)", "OFFSET_ANG": "40deg from vertical", "GSD_m_": "approx. 0.05m (5cm) in image centre", "LENS": "50mm Voigtlander APO Lanthar", "layer": "2026_ASL_Oblique_Sample_Footprints", "path": "C:/Users/JamesMckenzie.GEOSMART/OneDrive - Aerial Surveys/Documents/05 Client Progress Portal/Oblique_WebMap/Data/Shape Files/2026_ASL_Oblique_Sample_Footprints.shp" }, "geometry": { "type": "MultiPolygon", "coordinates": [ [ [ [ 173.024491417020016, -41.034987621669352 ], [ 173.015173821533239, -41.038237939787166 ], [ 173.013353511076872, -41.033260899023425 ], [ 173.023551223573008, -41.032418008036039 ], [ 173.024491417020016, -41.034987621669352 ] ] ] ] } },
{ "type": "Feature", "properties": { "MAP_NAME": "FootPrints.txt", "NAME": "336.jpg", "EO_paramet": "1602255.265566241\t5457407.756990428\t588.4534000000001\t-12.61581        \t38.2796          \t109.864054", "PERIMETER": "2.588 km", "ENCLOSED_A": "0.3679 sq km", "FRAME": "336.tif", "ALTITUDEm": 588.453, "PROJECT": "Tasman Oblique Test Site", "DATE_DMY": 140226, "YYMMDD": 260214, "CAMERA": "Sony A7R IV (60mp sensor)", "OFFSET_ANG": "40deg from vertical", "GSD_m_": "approx. 0.05m (5cm) in image centre", "LENS": "50mm Voigtlander APO Lanthar", "layer": "2026_ASL_Oblique_Sample_Footprints", "path": "C:/Users/JamesMckenzie.GEOSMART/OneDrive - Aerial Surveys/Documents/05 Client Progress Portal/Oblique_WebMap/Data/Shape Files/2026_ASL_Oblique_Sample_Footprints.shp" }, "geometry": { "type": "MultiPolygon", "coordinates": [ [ [ [ 173.024951454713459, -41.036318847575984 ], [ 173.015658742708609, -41.039560465812642 ], [ 173.013843252330219, -41.034596812792323 ], [ 173.024013751782633, -41.033756145747091 ], [ 173.024951454713459, -41.036318847575984 ] ] ] ] } },
{ "type": "Feature", "properties": { "MAP_NAME": "FootPrints.txt", "NAME": "337.jpg", "EO_paramet": "1602289.514331053\t5457257.993649365\t584.5755000000002\t-12.61581        \t38.2796          \t109.864054", "PERIMETER": "2.571 km", "ENCLOSED_A": "0.3631 sq km", "FRAME": "337.tif", "ALTITUDEm": 584.576, "PROJECT": "Tasman Oblique Test Site", "DATE_DMY": 140226, "YYMMDD": 260214, "CAMERA": "Sony A7R IV (60mp sensor)", "OFFSET_ANG": "40deg from vertical", "GSD_m_": "approx. 0.05m (5cm) in image centre", "LENS": "50mm Voigtlander APO Lanthar", "layer": "2026_ASL_Oblique_Sample_Footprints", "path": "C:/Users/JamesMckenzie.GEOSMART/OneDrive - Aerial Surveys/Documents/05 Client Progress Portal/Oblique_WebMap/Data/Shape Files/2026_ASL_Oblique_Sample_Footprints.shp" }, "geometry": { "type": "MultiPolygon", "coordinates": [ [ [ [ 173.025371807431839, -41.037656164267375 ], [ 173.016140170946045, -41.040876455685783 ], [ 173.014336571852141, -41.035945521865166 ], [ 173.024440248643344, -41.035110354634938 ], [ 173.025371807431839, -41.037656164267375 ] ] ] ] } }
]
}
